IRIDIUM 921             
1 24873U 97034E   24217.24084620  .00042033  00000+0  95416-3 0  9998
2 24873  86.3768 264.2576 0005742  87.1998 272.9915 15.42856352482860
IRIDIUM 26              
1 24903U 97043A   24217.53430232  .00000755  00000+0  25086-3 0  9999
2 24903  86.3925 243.4642 0002506  89.4410 270.7074 14.36462788411740
IRIDIUM 22              
1 24907U 97043E   24216.79084539  .00000630  00000+0  21317-3 0  9990
2 24907  86.3928 247.0515 0002268  92.1322 268.0134 14.35347186411238
DUMMY MASS 1            
1 24925U 97048A   24216.92769696  .00000776  00000+0  84946-4 0  9993
2 24925  86.3331 281.9298 0006793 170.8701 189.2649 14.86315990457995
DUMMY MASS 2            
1 24926U 97048B   24217.44344878  .00000770  00000+0  84832-4 0  9991
2 24926  86.3333 283.2435 0007162 182.3015 177.8178 14.86074077458093
IRIDIUM 29              
1 24944U 97051A   24217.54539708  .00000711  00000+0  23922-3 0  9991
2 24944  86.3933 276.6290 0002155  99.2346 260.9095 14.35802432408044
IRIDIUM 33              
1 24946U 97051C   24217.26903330  .00000473  00000+0  16119-3 0  9993
2 24946  86.3848 275.9933 0009255  45.1544 315.0403 14.34437215407311
IRIDIUM 28              
1 24948U 97051E   24216.89039415  .00000675  00000+0  22248-3 0  9991
2 24948  86.3937 274.5986 0002595  86.4950 273.6544 14.36756731408274
